0 FENGYUN 1C DEB
1 30076U 99025QD  13282.66665220  .00000083  00000-0  12255-3 0   248
2 30076 099.5344 313.9055 0178837 248.0002 232.3819 13.74165778337952
0 FENGYUN 1C DEB
1 30076U 99025QD  13286.67133413  .00000130  00000-0  16649-3 0   263
2 30076 099.5333 317.9029 0179020 237.5611 243.5563 13.74166970338506
0 FENGYUN 1C DEB
1 30076U 99025QD  13288.03585818  .00000180  00000-0  21402-3 0   274
2 30076 099.5329 319.2648 0179096 234.0076 153.8628 13.74167782338690
0 FENGYUN 1C DEB
1 30076U 99025QD  13289.06347266  .00000141  00000-0  17678-3 0   289
2 30076 099.5327 320.2904 0179153 231.3311 197.4774 13.74168338338831
0 FENGYUN 1C DEB
1 30076U 99025QD  13290.53959753  .00000136  00000-0  17171-3 0   296
2 30076 099.5325 321.7635 0179208 227.4848 299.8812 13.74169151339035
0 FENGYUN 1C DEB
1 30076U 99025QD  13292.33937596  .00000150  00000-0  18537-3 0   302
2 30076 099.5324 323.5595 0179289 222.7992 203.4052 13.74169695339283
0 FENGYUN 1C DEB
1 30076U 99025QD  13293.35930740  .00000150  00000-0  18552-3 0   317
2 30076 099.5324 324.5773 0179348 220.1462 209.0158 13.74170276339424
0 FENGYUN 1C DEB
1 30076U 99025QD  13294.60797961  .00000167  00000-0  20082-3 0   322
2 30076 099.5323 325.8231 0179412 216.9052 266.2050 13.74170811339595
0 FENGYUN 1C DEB
1 30076U 99025QD  13295.62795505  .00000183  00000-0  21594-3 0   335
2 30076 099.5323 326.8409 0179455 214.2545 272.0362 13.74171074339737
